{
  "links" : {
    "next" : "https://api.nasa.gov/neo/rest/v1/feed?start_date=2014-02-09&end_date=2014-02-09&detailed=true&api_key=t0TVs3DtDT2H8Oy2Zy8m2eVrNsAVKAexjcZXUckd",
    "prev" : "https://api.nasa.gov/neo/rest/v1/feed?start_date=2014-02-07&end_date=2014-02-07&detailed=true&api_key=t0TVs3DtDT2H8Oy2Zy8m2eVrNsAVKAexjcZXUckd",
    "self" : "https://api.nasa.gov/neo/rest/v1/feed?start_date=2014-02-08&end_date=2014-02-08&detailed=true&api_key=t0TVs3DtDT2H8Oy2Zy8m2eVrNsAVKAexjcZXUckd"
  },
  "element_count" : 9,
  "near_earth_objects" : {
    "2014-02-08" : [ {
      "links" : {
        "self" : "https://api.nasa.gov/neo/rest/v1/neo/3660059?api_key=t0TVs3DtDT2H8Oy2Zy8m2eVrNsAVKAexjcZXUckd"
      },
      "neo_reference_id" : "3660059",
      "name" : "(2014 BP43)",
      "nasa_jpl_url" : "http://ssd.jpl.nasa.gov/sbdb.cgi?sstr=3660059",
      "absolute_magnitude_h" : 26.5,
      "estimated_diameter" : {
        "kilometers" : {
          "estimated_diameter_min" : 0.0133215567,
          "estimated_diameter_max" : 0.0297879063
        },
        "meters" : {
          "estimated_diameter_min" : 13.3215566698,
          "estimated_diameter_max" : 29.7879062798
        },
        "miles" : {
          "estimated_diameter_min" : 0.008277629,
          "estimated_diameter_max" : 0.0185093411
        },
        "feet" : {
          "estimated_diameter_min" : 43.7058959846,
          "estimated_diameter_max" : 97.7293544391
        }
      },
      "is_potentially_hazardous_asteroid" : false,
      "close_approach_data" : [ {
        "close_approach_date" : "2014-02-08",
        "epoch_date_close_approach" : 1391846400000,
        "relative_velocity" : {
          "kilometers_per_second" : "7.4337458397",
          "kilometers_per_hour" : "26761.4850228577",
          "miles_per_hour" : "16628.5460687862"
        },
        "miss_distance" : {
          "astronomical" : "0.0141838556",
          "lunar" : "5.5175199509",
          "kilometers" : "2121874.5",
          "miles" : "1318471.75"
        },
        "orbiting_body" : "Earth"
      } ],
      "orbital_data" : {
        "orbit_id" : "8",
        "orbit_determination_date" : "2017-04-06 08:42:41",
        "orbit_uncertainty" : "7",
        "minimum_orbit_intersection" : ".0115732",
        "jupiter_tisserand_invariant" : "5.550",
        "epoch_osculation" : "2458000.5",
        "eccentricity" : ".2403469415239353",
        "semi_major_axis" : "1.118791415202451",
        "inclination" : "3.265515350879347",
        "ascending_node_longitude" : "127.0167440997724",
        "orbital_period" : "432.2371736569252",
        "perihelion_distance" : ".8498933203553071",
        "perihelion_argument" : "87.09563664928362",
        "aphelion_distance" : "1.387689510049596",
        "perihelion_time" : "2458052.926856704244",
        "mean_anomaly" : "316.3349254441766",
        "mean_motion" : ".8328760734627114",
        "equinox" : "J2000"
      }
    }, {
      "links" : {
        "self" : "https://api.nasa.gov/neo/rest/v1/neo/3662228?api_key=t0TVs3DtDT2H8Oy2Zy8m2eVrNsAVKAexjcZXUckd"
      },
      "neo_reference_id" : "3662228",
      "name" : "(2014 DQ)",
      "nasa_jpl_url" : "http://ssd.jpl.nasa.gov/sbdb.cgi?sstr=3662228",
      "absolute_magnitude_h" : 24.7,
      "estimated_diameter" : {
        "kilometers" : {
          "estimated_diameter_min" : 0.0305179233,
          "estimated_diameter_max" : 0.0682401509
        },
        "meters" : {
          "estimated_diameter_min" : 30.5179232594,
          "estimated_diameter_max" : 68.2401509401
        },
        "miles" : {
          "estimated_diameter_min" : 0.0189629525,
          "estimated_diameter_max" : 0.0424024508
        },
        "feet" : {
          "estimated_diameter_min" : 100.1244233463,
          "estimated_diameter_max" : 223.8850168104
        }
      },
      "is_potentially_hazardous_asteroid" : false,
      "close_approach_data" : [ {
        "close_approach_date" : "2014-02-08",
        "epoch_date_close_approach" : 1391846400000,
        "relative_velocity" : {
          "kilometers_per_second" : "6.7466740401",
          "kilometers_per_hour" : "24288.0265443252",
          "miles_per_hour" : "15091.6351602781"
        },
        "miss_distance" : {
          "astronomical" : "0.0367125645",
          "lunar" : "14.2811880112",
          "kilometers" : "5492121.5",
          "miles" : "3412646"
        },
        "orbiting_body" : "Earth"
      } ],
      "orbital_data" : {
        "orbit_id" : "11",
        "orbit_determination_date" : "2017-04-06 08:42:26",
        "orbit_uncertainty" : "7",
        "minimum_orbit_intersection" : ".0136916",
        "jupiter_tisserand_invariant" : "5.268",
        "epoch_osculation" : "2458000.5",
        "eccentricity" : ".2372285423481652",
        "semi_major_axis" : "1.199775288551214",
        "inclination" : "3.896475238938635",
        "ascending_node_longitude" : "145.1871135651206",
        "orbital_period" : "480.0078013669586",
        "perihelion_distance" : ".9151543457028601",
        "perihelion_argument" : "296.6088082720701",
        "aphelion_distance" : "1.484396231399568",
        "perihelion_time" : "2458089.761440231452",
        "mean_anomaly" : "293.0550078731807",
        "mean_motion" : ".7499878105622403",
        "equinox" : "J2000"
      }
    }, {
      "links" : {
        "self" : "https://api.nasa.gov/neo/rest/v1/neo/3662442?api_key=t0TVs3DtDT2H8Oy2Zy8m2eVrNsAVKAexjcZXUckd"
      },
      "neo_reference_id" : "3662442",
      "name" : "(2014 DV17)",
      "nasa_jpl_url" : "http://ssd.jpl.nasa.gov/sbdb.cgi?sstr=3662442",
      "absolute_magnitude_h" : 21.7,
      "estimated_diameter" : {
        "kilometers" : {
          "estimated_diameter_min" : 0.1214940408,
          "estimated_diameter_max" : 0.2716689341
        },
        "meters" : {
          "estimated_diameter_min" : 121.4940407996,
          "estimated_diameter_max" : 271.6689340891
        },
        "miles" : {
          "estimated_diameter_min" : 0.0754928736,
          "estimated_diameter_max" : 0.1688071972
        },
        "feet" : {
          "estimated_diameter_min" : 398.6025088171,
          "estimated_diameter_max" : 891.3023057169
        }
      },
      "is_potentially_hazardous_asteroid" : false,
      "close_approach_data" : [ {
        "close_approach_date" : "2014-02-08",
        "epoch_date_close_approach" : 1391846400000,
        "relative_velocity" : {
          "kilometers_per_second" : "1.7954335015",
          "kilometers_per_hour" : "6463.5606055783",
          "miles_per_hour" : "4016.2051996161"
        },
        "miss_distance" : {
          "astronomical" : "0.3117741279",
          "lunar" : "121.2801361084",
          "kilometers" : "46640748",
          "miles" : "28981216"
        },
        "orbiting_body" : "Earth"
      } ],
      "orbital_data" : {
        "orbit_id" : "10",
        "orbit_determination_date" : "2017-04-06 08:42:21",
        "orbit_uncertainty" : "3",
        "minimum_orbit_intersection" : ".276284",
        "jupiter_tisserand_invariant" : "4.099",
        "epoch_osculation" : "2458000.5",
        "eccentricity" : ".2738134830900396",
        "semi_major_axis" : "1.741537630952172",
        "inclination" : "3.475969175773482",
        "ascending_node_longitude" : "160.3740827318658",
        "orbital_period" : "839.4555823426629",
        "perihelion_distance" : "1.264681146288782",
        "perihelion_argument" : "354.8244960076198",
        "aphelion_distance" : "2.218394115615562",
        "perihelion_time" : "2458402.545621028332",
        "mean_anomaly" : "187.582987575966",
        "mean_motion" : ".428849372822503",
        "equinox" : "J2000"
      }
    } ]
  }
}